     2.11           N: GPS NAV DATA                         RINEX VERSION / TYPE
teqc  2019Feb25                         20221121 12:28:29UTCPGM / RUN BY / DATE
OSX ker:10.11.6|Core i5|gcc 4.3 -m64|OSX ker:10.10+|=+      COMMENT
    1.2107D-08  0.0000D+00 -1.1921D-07  0.0000D+00          ION ALPHA
    9.4208D+04  0.0000D+00 -1.9661D+05  0.0000D+00          ION BETA
   -9.313225746155D-10-1.243449787580D-14   233472     1554 DELTA-UTC: A0,A1,T,W
                                                            END OF HEADER
 2 09 10 19  0  0  0.0 1.823538914323D-04 3.751665644813D-12 0.000000000000D+00
    6.100000000000D+01 8.003125000000D+01 4.805200155874D-09-9.540948776984D-01
    4.110857844353D-06 9.117996436544D-03 1.149252057076D-05 5.153728721619D+03
    8.640000000000D+04 2.421438694000D-08-3.041485036300D+00-1.471489667892D-07
    9.412210771787D-01 1.495625000000D+02 2.905839872169D+00-8.079979420718D-09
    2.392956819114D-11 1.000000000000D+00 1.554000000000D+03 0.000000000000D+00
    2.000000000000D+00 0.000000000000D+00-1.722946763039D-08 6.100000000000D+01
    8.341800000000D+04 4.000000000000D+00
 4 09 10 19  0  0  0.0-3.174021840096D-04-1.773514668457D-11 0.000000000000D+00
    4.300000000000D+01 7.368750000000D+01 4.758769650429D-09 1.888505484588D+00
    3.939494490623D-06 8.945257635787D-03 1.219660043716D-05 5.153568456650D+03
    8.640000000000D+04-2.197921276093D-07-3.023310366749D+00 8.568167686462D-08
    9.404022014692D-01 1.364375000000D+02 5.392552096640D-01-8.069621846426D-09
   -7.714607058635D-11 1.000000000000D+00 1.554000000000D+03 0.000000000000D+00
    2.000000000000D+00 0.000000000000D+00-6.053596735001D-09 4.300000000000D+01
    8.341800000000D+04 4.000000000000D+00
10 09 10 19  0  0  0.0-2.621859312057D-05-9.094947017729D-13 0.000000000000D+00
    1.400000000000D+01 8.184375000000D+01 5.058067831685D-09 1.608544464276D-01
    4.420056939125D-06 8.637527818792D-03 1.791864633560D-06 5.153385593414D+03
    8.640000000000D+04 6.891787052155D-08-1.956496069629D+00 1.005828380585D-07
    9.560893119518D-01 3.395000000000D+02 6.160890277009D-01-8.697862300877D-09
    1.767930784271D-10 1.000000000000D+00 1.554000000000D+03 0.000000000000D+00
    2.000000000000D+00 0.000000000000D+00-2.793967723846D-09 1.400000000000D+01
    8.341800000000D+04 4.000000000000D+00
12 09 10 19  0  0  0.0-2.025156281888D-04 5.456968210638D-12 0.000000000000D+00
    6.600000000000D+01 3.475000000000D+01 4.613763610345D-09-2.584705557944D+00
    1.883134245873D-06 3.056372050196D-03 5.912035703659D-06 5.153539857864D+03
    8.640000000000D+04-1.862645149231D-09 1.168265181883D+00 6.891787052155D-08
    9.680249694398D-01 2.683437500000D+02-5.796337338316D-01-8.077836474313D-09
    5.121641908372D-10 1.000000000000D+00 1.554000000000D+03 0.000000000000D+00
    2.000000000000D+00 0.000000000000D+00-1.164153218269D-08 6.600000000000D+01
    8.341800000000D+04 4.000000000000D+00
13 09 10 19  0  0  0.0 3.057196736336D-04 2.273736754432D-13 0.000000000000D+00
    6.900000000000D+01-1.115937500000D+02 3.874089942825D-09-3.292605871622D-01
   -5.885958671570D-06 3.959081484936D-03 5.075708031654D-06 5.153640193939D+03
    8.640000000000D+04-4.284083843231D-08-8.701132624071D-01-1.117587089539D-08
    9.941861535124D-01 2.985625000000D+02 1.661104896006D+00-7.997833141853D-09
   -4.389468553270D-10 1.000000000000D+00 1.554000000000D+03 0.000000000000D+00
    2.000000000000D+00 0.000000000000D+00-1.117587089539D-08 6.900000000000D+01
    8.341800000000D+04 4.000000000000D+00
23 09 10 19  0  0  0.0 3.873067907989D-04-4.547473508865D-13 0.000000000000D+00
    6.000000000000D+01-1.106875000000D+02 4.448399579412D-09-1.053352428402D+00
   -5.863606929779D-06 6.383923580870D-03 3.784894943237D-06 5.153762580872D+03
    8.640000000000D+04 1.862645149231D-09-9.255721898197D-01-1.396983861923D-07
    9.694767093620D-01 3.107812500000D+02 2.991614868493D+00-8.236057350562D-09
   -3.696582548929D-10 1.000000000000D+00 1.554000000000D+03 0.000000000000D+00
    2.000000000000D+00 0.000000000000D+00-2.002343535423D-08 6.000000000000D+01
    8.341800000000D+04 4.000000000000D+00
29 09 10 19  0  0  0.0 6.712321192026D-05 3.183231456205D-12 0.000000000000D+00
    6.800000000000D+01-3.571875000000D+01 4.744840498795D-09 2.744625922401D+00
   -2.091750502586D-06 2.973000751808D-03 7.608905434608D-06 5.153584386826D+03
    8.640000000000D+04 7.450580596924D-08 2.236815712604D+00 2.607703208923D-08
    9.600657749131D-01 2.330000000000D+02-1.268831447397D+00-8.022477025512D-09
   -5.260933424708D-10 1.000000000000D+00 1.554000000000D+03 0.000000000000D+00
    2.800000000000D+00 0.000000000000D+00-8.847564458847D-09 6.800000000000D+01
    8.341800000000D+04 4.000000000000D+00
30 09 10 19  0  0  0.0 1.859776675701D-04 3.069544618484D-12 0.000000000000D+00
    6.900000000000D+01 3.556250000000D+01 5.004851329290D-09 1.169848337199D+00
    1.670792698860D-06 1.193767727818D-02 6.340444087982D-06 5.153650926590D+03
    8.640000000000D+04-1.564621925354D-07 1.118165831867D+00-1.396983861923D-07
    9.532073355402D-01 2.539687500000D+02 1.463986812607D+00-8.424279476483D-09
    5.114498753688D-10 1.000000000000D+00 1.554000000000D+03 0.000000000000D+00
    2.800000000000D+00 0.000000000000D+00-7.916241884232D-09 6.900000000000D+01
    8.341800000000D+04 4.000000000000D+00
31 09 10 19  0  0  0.0-6.269244477153D-05 6.821210263297D-13 0.000000000000D+00
    7.200000000000D+01-6.812500000000D+01 3.733726953286D-09-2.811865395560D+00
   -3.421679139137D-06 7.218751357868D-03 1.282058656216D-05 5.153545475006D+03
    8.640000000000D+04 8.568167686462D-08 1.142672862283D-01 4.097819328308D-08
    9.748575371066D-01 1.412500000000D+02-1.148425727650D+00-7.427452240342D-09
    2.042942239602D-10 1.000000000000D+00 1.554000000000D+03 0.000000000000D+00
    2.000000000000D+00 0.000000000000D+00-1.303851604462D-08 7.200000000000D+01
    8.341800000000D+04 4.000000000000D+00
 5 09 10 19  0  0  0.0-6.239023059607D-05 8.526512829121D-12 0.000000000000D+00
    2.900000000000D+01 8.831250000000D+01 4.878060333650D-09 4.345232307910D-01
    4.634261131287D-06 1.556903938763D-03 2.009794116020D-06 5.153577669144D+03
    8.640000000000D+04 4.284083843231D-08-1.983503161211D+00-1.303851604462D-08
    9.610316929075D-01 3.380000000000D+02 2.185689053237D-01-8.501782704804D-09
    2.092944322389D-10 1.000000000000D+00 1.554000000000D+03 0.000000000000D+00
    2.000000000000D+00 0.000000000000D+00-9.313225746155D-09 2.900000000000D+01
    8.380800000000D+04 4.000000000000D+00
25 09 10 19  0  0  0.0 6.361231207848D-04 1.364242052659D-11 0.000000000000D+00
    7.000000000000D+01-7.240625000000D+01 3.811230181606D-09 1.912541945460D+00
   -3.738328814507D-06 1.125263574068D-02 1.199170947075D-05 5.153646373749D+03
    8.640000000000D+04 2.607703208923D-07 2.154052806088D-02 9.313225746155D-09
    9.716612000806D-01 1.521875000000D+02-1.214584332564D+00-7.462453698293D-09
    9.250385315679D-11 1.000000000000D+00 1.554000000000D+03 0.000000000000D+00
    2.800000000000D+00 0.000000000000D+00-7.450580596924D-09 7.000000000000D+01
    8.473800000000D+04 4.000000000000D+00
